APRIZESAT 2             
1 28366U 04025A   26162.43999068  .00000128  00000+0  53220-4 0  9997
2 28366  98.1009 328.7459 0104260 267.4084  91.5166 14.38033580150814
SAUDICOMSAT 1           
1 28369U 04025D   26162.58529446  .00000347  00000+0  90498-4 0  9996
2 28369  98.5772 172.5656 0032983  42.4295 317.9442 14.55469322163316
SAUDICOMSAT 2           
1 28370U 04025E   26162.53558358  .00000232  00000+0  71612-4 0  9997
2 28370  98.6642 174.6218 0054136 276.9929  82.5109 14.49978070159288
APRIZESAT 1             
1 28372U 04025G   26162.57420999  .00000186  00000+0  57902-4 0  9996
2 28372  98.6304 173.1470 0044759 170.7312 189.4718 14.51774194161095
NANOSAT-1               
1 28493U 04049B   26162.62578746  .00000889  00000+0  12439-3 0  9991
2 28493  98.2269 299.1511 0003106 326.4943  33.6071 14.80148688154629
SAUDICOMSAT 7           
1 31119U 07012C   26162.44812661  .00000377  00000+0  76864-4 0  9995
2 31119  98.3776 136.4624 0054914 213.3602 146.4137 14.66104787 21590
SAUDICOMSAT 6           
1 31121U 07012E   26162.48038060  .00000564  00000+0  11743-3 0  9997
2 31121  98.4097 129.8908 0071470 345.6565  14.2606 14.62551445 19351
SAUDICOMSAT 5           
1 31124U 07012H   26162.49772894  .00000469  00000+0  89312-4 0  9993
2 31124  98.3486 137.2615 0048171 142.2385 218.2216 14.68149330 22760
SAUDICOMSAT 3           
1 31125U 07012J   26162.46818329  .00000700  00000+0  12227-3 0  9993
2 31125  98.3141 137.7802 0040448  70.7521 289.8054 14.70695957 23981
SAUDICOMSAT 4           
1 31127U 07012L   26161.86895636  .00000444  00000+0  91468-4 0  9994
2 31127  98.3979 134.3105 0062067 278.3986  81.0183 14.64505997 20364
APRIZESAT 4             
1 35684U 09041D   26162.45791769  .00000551  00000+0  72460-4 0  9998
2 35684  98.1412 237.6641 0042795 341.9353  18.0337 14.83871583910513
APRIZESAT 3             
1 35686U 09041F   26162.41456285  .00001151  00000+0  10394-3 0  9991
2 35686  98.2053 315.3624 0062752  86.3032 274.5361 14.96223120915514
S-NET D                 
1 43186U 18014G   26162.26007022  .00004093  00000+0  21268-3 0  9999
2 43186  97.5372  67.0878 0009492  48.2638 311.9405 15.16616381457869
S-NET B                 
1 43187U 18014H   26162.27140843  .00004431  00000+0  23011-3 0  9994
2 43187  97.5377  67.0856 0009999  43.6997 316.5026 15.16586495457862
S-NET A                 
1 43188U 18014J   26162.45691219  .00004034  00000+0  20961-3 0  9993
2 43188  97.5387  67.4776 0009873  43.9235 316.2781 15.16625870457897
S-NET C                 
1 43189U 18014K   26162.47319329  .00005017  00000+0  26003-3 0  9990
2 43189  97.5404  67.5675 0011048  36.1436 324.0542 15.16581476456446
SALSAT                  
1 46495U 20068K   26162.58556221  .00006923  00000+0  24314-3 0  9991
2 46495  97.8849 165.3093 0008525 331.4069  28.6701 15.29719030314502
OOV-CUBE (TUBSAT-30)    
1 60240U 24128F   26162.59923855  .00001977  00000+0  15980-3 0  9991
2 60240  61.9950 245.0577 0045327 132.4986 227.9949 15.02751187105272
LPNTSAT-001 (IOD-1)     
1 68408U 26065A   26162.60745466  .00002832  00000+0  14005-3 0  9997
2 68408  97.4031  43.2353 0017268  29.4957 330.7247 15.18509269 11411
